IRIDIUM 116             
1 43072U 17083C   24070.36498979  .00000248  00000+0  81473-4 0  9993
2 43072  86.3958 308.4125 0002219  82.8557 277.2891 14.34217268325373
IRIDIUM 130             
1 43073U 17083D   24070.40303797  .00000352  00000+0  11866-3 0  9996
2 43073  86.3968 308.5915 0002129  92.0872 268.0568 14.34220861325323
IRIDIUM 151             
1 43074U 17083E   24070.58697984  .00000310  00000+0  10349-3 0  9999
2 43074  86.3960 308.3586 0001893  79.4398 280.7011 14.34216697325378
IRIDIUM 134             
1 43075U 17083F   24070.90411043  .00000070  00000+0  17841-4 0  9994
2 43075  86.3962 308.2229 0002273  89.9830 270.1626 14.34216918325386
IRIDIUM 137             
1 43076U 17083G   24070.35864176  .00000339  00000+0  11415-3 0  9991
2 43076  86.3963 308.5271 0002183  73.4668 286.6768 14.34220999325377
IRIDIUM 141             
1 43077U 17083H   24070.42206810  .00000012  00000+0 -28970-5 0  9990
2 43077  86.3957 308.3780 0001921  86.7062 273.4354 14.34215708325386
IRIDIUM 153             
1 43078U 17083J   24070.51378608 -.00000063  00000+0 -29477-4 0  9995
2 43078  86.3919 276.7733 0001503  94.1578 265.9789 14.34216508326504
IRIDIUM 131             
1 43079U 17083K   24070.40938842  .00000360  00000+0  12151-3 0  9994
2 43079  86.3964 308.5144 0002182  82.3201 277.8243 14.34217289325313
